[
    {
        "Altitude(m)": 612513.9543300911,
        "Argument of Periapsis(deg)": 0.0,
        "Eccentricity": 0.0,
        "Inclination(deg)": 60.0,
        "Latitude(deg)": -28.1360367727312,
        "Longitude(deg)": -47.08684952285436,
        "Mean Anomaly(deg)": -147.2727,
        "RAAN(deg)": 215.0,
        "Satellite Name": "Test1 959",
        "Satellite Number": 959,
        "Semi-Major Axis(m)": 6980739.136638005,
        "Time(s)": 0
    },
    {
        "Altitude(m)": 612708.322441019,
        "Argument of Periapsis(deg)": 0.00010418945913296404,
        "Eccentricity": 0.0,
        "Inclination(deg)": 60.0,
        "Latitude(deg)": -28.647775504750467,
        "Longitude(deg)": -46.72961813092435,
        "Mean Anomaly(deg)": -146.65259385453814,
        "RAAN(deg)": 214.99957995086024,
        "Satellite Name": "Test1 959",
        "Satellite Number": 959,
        "Semi-Major Axis(m)": 6980739.136638005,
        "Time(s)": 10
    }
]